KUIPER-00035            
1 63748U 25088AA  25270.01504678  .00010043  00000+0  13395-2 0  9998
2 63748  51.9002 117.8699 0004021 245.6087 114.4455 14.80083237 23271
KUIPER-00037            
1 63749U 25088AB  25270.01657401 -.00002995  00000+0 -36383-3 0  9994
2 63749  51.8989 116.8233 0007593 189.0474 171.0353 14.79900391 24078
KUIPER-00038            
1 63750U 25088AC  25269.98342953  .00001374  00000+0  22049-3 0  9995
2 63750  51.9012 101.4652 0005360 256.1882 103.8483 14.77612969 23280
KUIPER-00039            
1 64500U 25134A   25270.25002315  .00007590  00000+0  10223-2 0  9994
2 64500  51.9004 235.7962 0013158 116.0980 111.9310 14.79940254  5605
KUIPER-00040            
1 64501U 25134B   25270.12809548 -.00004167  00000+0 -51652-3 0  9995
2 64501  51.8990 247.5094 0018842  91.9143 268.3978 14.79859676 15697
KUIPER-00041            
1 64502U 25134C   25270.19455017  .00005800  00000+0  78834-3 0  9995
2 64502  51.8981 248.5782 0014904  85.0161 275.2502 14.79929333 15689
KUIPER-00042            
1 64503U 25134D   25270.12791629 -.00011592  00000+0 -14967-2 0  9994
2 64503  51.8987 244.8369 0013912  95.9234 264.3315 14.79779612 15735
KUIPER-00043            
1 64504U 25134E   25270.21814959 -.00218139  00000+0 -25118-1 0  9992
2 64504  51.8975 236.9807 0006074  92.7175 267.4485 14.86578485 15850
